[{"OBJECT_NAME":"JILIN-1 KUANFU 01C","OBJECT_ID":"2022-048A","EPOCH":"2026-03-09T22:44:12.026688","MEAN_MOTION":15.09601076,"ECCENTRICITY":0.00140886,"INCLINATION":97.5312,"RA_OF_ASC_NODE":147.8831,"ARG_OF_PERICENTER":308.8335,"MEAN_ANOMALY":51.1636,"EPHEMERIS_TYPE":0,"CLASSIFICATION_TYPE":"U","NORAD_CAT_ID":52443,"ELEMENT_SET_NO":999,"REV_AT_EPOCH":21222,"BSTAR":0.00028577595,"MEAN_MOTION_DOT":4.539e-5,"MEAN_MOTION_DDOT":0},{"OBJECT_NAME":"STARLINK-5891","OBJECT_ID":"2023-058AL","EPOCH":"2026-03-09T22:38:46.444704","MEAN_MOTION":15.05647988,"ECCENTRICITY":0.00018791,"INCLINATION":97.6046,"RA_OF_ASC_NODE":71.4513,"ARG_OF_PERICENTER":92.9955,"MEAN_ANOMALY":267.1487,"EPHEMERIS_TYPE":0,"CLASSIFICATION_TYPE":"U","NORAD_CAT_ID":56351,"ELEMENT_SET_NO":999,"REV_AT_EPOCH":15823,"BSTAR":2.0695003e-5,"MEAN_MOTION_DOT":2.38e-6,"MEAN_MOTION_DDOT":0}]
